$$SOE
2460154.500000000, A.D. 2023-Jul-29 00:00:00.0000, 5.831577847850119E+09, 2.554937795811410E+09, -6.306196800634527E+07,
2460161.500000000, A.D. 2023-Aug-05 00:00:00.0000, 5.830484093772617E+09, 2.557511641117747E+09, -6.299010656073165E+07,
2460168.500000000, A.D. 2023-Aug-12 00:00:00.0000, 5.829389154621295E+09, 2.560084976884427E+09, -6.291823079852700E+07,
2460175.500000000, A.D. 2023-Aug-19 00:00:00.0000, 5.828293028624708E+09, 2.562657800181726E+09, -6.284634061403930E+07,
2460182.500000000, A.D. 2023-Aug-26 00:00:00.0000, 5.827195714317222E+09, 2.565230107681387E+09, -6.277443592569268E+07,
2460189.500000000, A.D. 2023-Sep-02 00:00:00.0000, 5.826097210516747E+09, 2.567801895675292E+09, -6.270251667461276E+07,
2460196.500000000, A.D. 2023-Sep-09 00:00:00.0000, 5.824997516316108E+09, 2.570373159981625E+09, -6.263058283456767E+07,
2460203.500000000, A.D. 2023-Sep-16 00:00:00.0000, 5.823896631256480E+09, 2.572943895680470E+09, -6.255863445340145E+07,
2460210.500000000, A.D. 2023-Sep-23 00:00:00.0000, 5.822794556099256E+09, 2.575514096965676E+09, -6.248667174064708E+07,
2460217.500000000, A.D. 2023-Sep-30 00:00:00.0000, 5.821691293856829E+09, 2.578083758303670E+09, -6.241469507277095E+07,
2460224.500000000, A.D. 2023-Oct-07 00:00:00.0000, 5.820586848728527E+09, 2.580652876356416E+09, -6.234270474438465E+07,
2460231.500000000, A.D. 2023-Oct-14 00:00:00.0000, 5.819481223981594E+09, 2.583221449355347E+09, -6.227070083140147E+07,
2460238.500000000, A.D. 2023-Oct-21 00:00:00.0000, 5.818374422005835E+09, 2.585789475528983E+09, -6.219868333110797E+07,
2460245.500000000, A.D. 2023-Oct-28 00:00:00.0000, 5.817266445117547E+09, 2.588356952844368E+09, -6.212665226356912E+07,
2460252.500000000, A.D. 2023-Nov-04 00:00:00.0000, 5.816157295862748E+09, 2.590923879291933E+09, -6.205460768242264E+07,
2460259.500000000, A.D. 2023-Nov-11 00:00:00.0000, 5.815046976997205E+09, 2.593490253113890E+09, -6.198254966009974E+07,
2460266.500000000, A.D. 2023-Nov-18 00:00:00.0000, 5.813935491362826E+09, 2.596056072911879E+09, -6.191047827261591E+07,
2460273.500000000, A.D. 2023-Nov-25 00:00:00.0000, 5.812822841733191E+09, 2.598621337656412E+09, -6.183839358853769E+07,
2460280.500000000, A.D. 2023-Dec-02 00:00:00.0000, 5.811709030656438E+09, 2.601186046586913E+09, -6.176629566545153E+07,
2460287.500000000, A.D. 2023-Dec-09 00:00:00.0000, 5.810594060373318E+09, 2.603750198943450E+09, -6.169418456576669E+07,
2460294.500000000, A.D. 2023-Dec-16 00:00:00.0000, 5.809477933097968E+09, 2.606313793542725E+09, -6.162206041717267E+07,
2460301.500000000, A.D. 2023-Dec-23 00:00:00.0000, 5.808360652009853E+09, 2.608876828885772E+09, -6.154992349356771E+07,
2460308.500000000, A.D. 2023-Dec-30 00:00:00.0000, 5.807242221616659E+09, 2.611439304846591E+09, -6.147777410789645E+07,
2460315.500000000, A.D. 2024-Jan-06 00:00:00.0000, 5.806122645715678E+09, 2.614001223581048E+09, -6.140561234742188E+07,
2460322.500000000, A.D. 2024-Jan-13 00:00:00.0000, 5.805001926126456E+09, 2.616562587849082E+09, -6.133343809033048E+07,
2460329.500000000, A.D. 2024-Jan-20 00:00:00.0000, 5.803880063418205E+09, 2.619123399834849E+09, -6.126125116406989E+07,
2460336.500000000, A.D. 2024-Jan-27 00:00:00.0000, 5.802757057603315E+09, 2.621683661116970E+09, -6.118905140629148E+07,
2460343.500000000, A.D. 2024-Feb-03 00:00:00.0000, 5.801632908368540E+09, 2.624243372840262E+09, -6.111683866685975E+07,
2460350.500000000, A.D. 2024-Feb-10 00:00:00.0000, 5.800507615121222E+09, 2.626802535797869E+09, -6.104461280037785E+07,
2460357.500000000, A.D. 2024-Feb-17 00:00:00.0000, 5.799381176989306E+09, 2.629361150431671E+09, -6.097237366147935E+07,
2460364.500000000, A.D. 2024-Feb-24 00:00:00.0000, 5.798253592811000E+09, 2.631919216765806E+09, -6.090012110511804E+07,
2460371.500000000, A.D. 2024-Mar-02 00:00:00.0000, 5.797124861143511E+09, 2.634476734240747E+09, -6.082785499731207E+07,
2460378.500000000, A.D. 2024-Mar-09 00:00:00.0000, 5.795994980429611E+09, 2.637033701385105E+09, -6.075557525429761E+07,
2460385.500000000, A.D. 2024-Mar-16 00:00:00.0000, 5.794863949717356E+09, 2.639590115522412E+09, -6.068328193027830E+07,
2460392.500000000, A.D. 2024-Mar-23 00:00:00.0000, 5.793731769829378E+09, 2.642145973621925E+09, -6.061097525367296E+07,
2460399.500000000, A.D. 2024-Mar-30 00:00:00.0000, 5.792598442740617E+09, 2.644701274266665E+09, -6.053865540851498E+07,
2460406.500000000, A.D. 2024-Apr-06 00:00:00.0000, 5.791463969420502E+09, 2.647256017371074E+09, -6.046632235969210E+07,
2460413.500000000, A.D. 2024-Apr-13 00:00:00.0000, 5.790328349690731E+09, 2.649810202484720E+09, -6.039397597939599E+07,
2460420.500000000, A.D. 2024-Apr-20 00:00:00.0000, 5.789191583146510E+09, 2.652363828358695E+09, -6.032161616869402E+07,
2460427.500000000, A.D. 2024-Apr-27 00:00:00.0000, 5.788053669624196E+09, 2.654916893213336E+09, -6.024924288091278E+07,
2460434.500000000, A.D. 2024-May-04 00:00:00.0000, 5.786914609303308E+09, 2.657469395003969E+09, -6.017685611232316E+07,
2460441.500000000, A.D. 2024-May-11 00:00:00.0000, 5.785774402681195E+09, 2.660021331583031E+09, -6.010445589019966E+07,
2460448.500000000, A.D. 2024-May-18 00:00:00.0000, 5.784633050502401E+09, 2.662572700780501E+09, -6.003204226387417E+07,
2460455.500000000, A.D. 2024-May-25 00:00:00.0000, 5.783490553667406E+09, 2.665123500395799E+09, -5.995961530144942E+07,
2460462.500000000, A.D. 2024-Jun-01 00:00:00.0000, 5.782346913180594E+09, 2.667673728044072E+09, -5.988717510214150E+07,
2460469.500000000, A.D. 2024-Jun-08 00:00:00.0000, 5.781202130383838E+09, 2.670223380834219E+09, -5.981472184847081E+07,
2460476.500000000, A.D. 2024-Jun-15 00:00:00.0000, 5.780056207875183E+09, 2.672772455424014E+09, -5.974225589014435E+07,
2460483.500000000, A.D. 2024-Jun-22 00:00:00.0000, 5.778909150107443E+09, 2.675320949627706E+09, -5.966977767111599E+07,
2460490.500000000, A.D. 2024-Jun-29 00:00:00.0000, 5.777760961545057E+09, 2.677868863755493E+09, -5.959728745377398E+07,
2460497.500000000, A.D. 2024-Jul-06 00:00:00.0000, 5.776611645024230E+09, 2.680416199213893E+09, -5.952478528457618E+07,
2460504.500000000, A.D. 2024-Jul-13 00:00:00.0000, 5.775461202265593E+09, 2.682962957191207E+09, -5.945227114898229E+07,
2460511.500000000, A.D. 2024-Jul-20 00:00:00.0000, 5.774309634553721E+09, 2.685509138576814E+09, -5.937974503958225E+07,
2460518.500000000, A.D. 2024-Jul-27 00:00:00.0000, 5.773156942927558E+09, 2.688054744154902E+09, -5.930720695565653E+07,
2460525.500000000, A.D. 2024-Aug-03 00:00:00.0000, 5.772003128154612E+09, 2.690599774697762E+09, -5.923465688990414E+07,
2460532.500000000, A.D. 2024-Aug-10 00:00:00.0000, 5.770848190654757E+09, 2.693144230954384E+09, -5.916209481806040E+07,
2460539.500000000, A.D. 2024-Aug-17 00:00:00.0000, 5.769692130420936E+09, 2.695688113556386E+09, -5.908952069415247E+07,
2460546.500000000, A.D. 2024-Aug-24 00:00:00.0000, 5.768534946964610E+09, 2.698231422819360E+09, -5.901693445601368E+07,
2460553.500000000, A.D. 2024-Aug-31 00:00:00.0000, 5.767376639401575E+09, 2.700774158378531E+09, -5.894433605693376E+07,
2460560.500000000, A.D. 2024-Sep-07 00:00:00.0000, 5.766217207043649E+09, 2.703316318785466E+09, -5.887172554691315E+07,
2460567.500000000, A.D. 2024-Sep-14 00:00:00.0000, 5.765056650581467E+09, 2.705857902061981E+09, -5.879910313019109E+07,
2460574.500000000, A.D. 2024-Sep-21 00:00:00.0000, 5.763894971829558E+09, 2.708398907624097E+09, -5.872646897947431E+07,
2460581.500000000, A.D. 2024-Sep-28 00:00:00.0000, 5.762732171546229E+09, 2.710939336348534E+09, -5.865382302608740E+07,
2460588.500000000, A.D. 2024-Oct-05 00:00:00.0000, 5.761568248997902E+09, 2.713479188783579E+09, -5.858116506265306E+07,
2460595.500000000, A.D. 2024-Oct-12 00:00:00.0000, 5.760403202907352E+09, 2.716018464484554E+09, -5.850849488177788E+07,
2460602.500000000, A.D. 2024-Oct-19 00:00:00.0000, 5.759237032034880E+09, 2.718557162203202E+09, -5.843581231233203E+07,
2460609.500000000, A.D. 2024-Oct-26 00:00:00.0000, 5.758069735360088E+09, 2.721095280129785E+09, -5.836311721585965E+07,
2460616.500000000, A.D. 2024-Nov-02 00:00:00.0000, 5.756901312121701E+09, 2.723632816039767E+09, -5.829040947885013E+07,
2460623.500000000, A.D. 2024-Nov-09 00:00:00.0000, 5.755731761812169E+09, 2.726169767366036E+09, -5.821768900800312E+07,
2460630.500000000, A.D. 2024-Nov-16 00:00:00.0000, 5.754561084153097E+09, 2.728706131197235E+09, -5.814495573079586E+07,
2460637.500000000, A.D. 2024-Nov-23 00:00:00.0000, 5.753389279098589E+09, 2.731241904152588E+09, -5.807220960967207E+07,
2460644.500000000, A.D. 2024-Nov-30 00:00:00.0000, 5.752216347074945E+09, 2.733777082090829E+09, -5.799945069235599E+07,
2460651.500000000, A.D. 2024-Dec-07 00:00:00.0000, 5.751042289876236E+09, 2.736311660074073E+09, -5.792667920229137E+07,
2460658.500000000, A.D. 2024-Dec-14 00:00:00.0000, 5.749867111527243E+09, 2.738845633810787E+09, -5.785389550590038E+07,
2460665.500000000, A.D. 2024-Dec-21 00:00:00.0000, 5.748690816795263E+09, 2.741379001337229E+09, -5.778109984523773E+07,
2460672.500000000, A.D. 2024-Dec-28 00:00:00.0000, 5.747513409323320E+09, 2.743911761970096E+09, -5.770829225929236E+07,
2460679.500000000, A.D. 2025-Jan-04 00:00:00.0000, 5.746334891982022E+09, 2.746443914906652E+09, -5.763547273775482E+07,
2460686.500000000, A.D. 2025-Jan-11 00:00:00.0000, 5.745155267618971E+09, 2.748975459132189E+09, -5.756264130433595E+07,
2460693.500000000, A.D. 2025-Jan-18 00:00:00.0000, 5.743974539288830E+09, 2.751506393716074E+09, -5.748979802036452E+07,
2460700.500000000, A.D. 2025-Jan-25 00:00:00.0000, 5.742792710207732E+09, 2.754036718021823E+09, -5.741694296950829E+07,
2460707.500000000, A.D. 2025-Feb-01 00:00:00.0000, 5.741609783621628E+09, 2.756566431801088E+09, -5.734407624320936E+07,
2460714.500000000, A.D. 2025-Feb-08 00:00:00.0000, 5.740425762647111E+09, 2.759095535191223E+09, -5.727119793033457E+07,
2460721.500000000, A.D. 2025-Feb-15 00:00:00.0000, 5.739240650113623E+09, 2.761624028596395E+09, -5.719830811511230E+07,
$$EOE